FLOCK 2K-14             
1 42892U 17042BV  17346.28151191  .00002123  00000-0  64644-4 0  9994
2 42892  96.9943 247.4048 0014853  57.9972 302.2714 15.34925826 22958
